APRIZESAT 2             
1 28366U 04025A   26164.94487179  .00000142  00000+0  57563-4 0  9990
2 28366  98.1010 331.1089 0104278 259.7521  99.1895 14.38034690151178
SAUDICOMSAT 1           
1 28369U 04025D   26164.99141419  .00000366  00000+0  95005-4 0  9993
2 28369  98.5771 175.0367 0032849  35.2227 325.1132 14.55471556163665
SAUDICOMSAT 2           
1 28370U 04025E   26165.01981851  .00000239  00000+0  73461-4 0  9992
2 28370  98.6641 177.1764 0054141 269.2990  90.2000 14.49979665159647
APRIZESAT 1             
1 28372U 04025G   26164.91754584  .00000208  00000+0  63155-4 0  9998
2 28372  98.6304 175.5541 0044907 163.6736 196.5917 14.51775503161439
NANOSAT-1               
1 28493U 04049B   26165.19464147  .00000913  00000+0  12755-3 0  9994
2 28493  98.2272 301.7825 0002954 315.8934  44.2041 14.80154265155009
SAUDICOMSAT 7           
1 31119U 07012C   26165.17807721  .00000399  00000+0  80635-4 0  9994
2 31119  98.3777 139.2482 0055083 204.7082 155.1481 14.66107765 21990
SAUDICOMSAT 6           
1 31121U 07012E   26165.14850568  .00000564  00000+0  11748-3 0  9993
2 31121  98.4098 132.6084 0071274 337.3082  22.4973 14.62555144 19744
SAUDICOMSAT 5           
1 31124U 07012H   26165.15572384  .00000553  00000+0  10368-3 0  9999
2 31124  98.3488 139.9732 0048308 134.0348 226.4852 14.68153092 23152
SAUDICOMSAT 3           
1 31125U 07012J   26165.18959795  .00000773  00000+0  13397-3 0  9997
2 31125  98.3143 140.5563 0040357  62.4074 298.1221 14.70701206 24388
SAUDICOMSAT 4           
1 31127U 07012L   26164.87515796  .00000442  00000+0  91204-4 0  9990
2 31127  98.3982 137.3781 0062045 268.7951  90.6142 14.64509396 20809
APRIZESAT 4             
1 35684U 09041D   26165.15518865  .00000593  00000+0  77384-4 0  9998
2 35684  98.1412 240.4152 0042596 333.0800  26.8203 14.83875858910912
APRIZESAT 3             
1 35686U 09041F   26165.15646432  .00001462  00000+0  13041-3 0  9997
2 35686  98.2055 318.2352 0062749  77.5021 283.3210 14.96232350915923
S-NET D                 
1 43186U 18014G   26164.70123738  .00005261  00000+0  27216-3 0  9990
2 43186  97.5371  69.5139 0009271  40.9348 319.2580 15.16642878458234
S-NET B                 
1 43187U 18014H   26164.97653461  .00004850  00000+0  25133-3 0  9990
2 43187  97.5378  69.7741 0009764  35.3366 324.8512 15.16615698458279
S-NET A                 
1 43188U 18014J   26164.70013378  .00005299  00000+0  27401-3 0  9997
2 43188  97.5389  69.7072 0009659  37.1264 323.0635 15.16650574458234
S-NET C                 
1 43189U 18014K   26164.98039433  .00004941  00000+0  25598-3 0  9996
2 43189  97.5404  70.0602 0010814  28.2612 331.9206 15.16608046456822
SALSAT                  
1 46495U 20068K   26165.00581426  .00008178  00000+0  28632-3 0  9997
2 46495  97.8843 167.8766 0008281 321.5879  38.4769 15.29759103314876
OOV-CUBE (TUBSAT-30)    
1 60240U 24128F   26164.92812934  .00002141  00000+0  17165-3 0  9996
2 60240  61.9948 236.9373 0045036 132.9755 227.5126 15.02762484105622
LPNTSAT-001 (IOD-1)     
1 68408U 26065A   26164.91380336  .00002794  00000+0  13816-3 0  9990
2 68408  97.4026  45.4930 0017030  21.8000 338.3955 15.18522908 11765
